NORAD_CAT_ID,OBJECT_NAME,OBJECT_TYPE,EPOCH,MEAN_MOTION,ECCENTRICITY,INCLINATION,RA_OF_ASC_NODE,ARG_OF_PERICENTER,MEAN_ANOMALY,BSTAR,MEAN_MOTION_DOT,MEAN_MOTION_DDOT,TLE_LINE0,TLE_LINE1,TLE_LINE2,SEMIMAJOR_AXIS,PERIOD,APOGEE,PERIGEE,DECAYED
51782.0,STARLINK-3616,PAYLOAD,2023-09-09 08:15:39,15.08854446,0.0001268,53.2173,124.8066,99.8598,260.2537,-0.00017156,-3.018e-05,0.0,0 STARLINK-3616,1 51782U 22017Q   23252.34421152 -.00003018  00000-0 -17156-3 0  9998,2 51782  53.2173 124.8066 0001268  99.8598 260.2537 15.08854446 84459,6917.836,95.437,540.578,538.824,0.0
51782.0,STARLINK-3616,PAYLOAD,2023-09-10 01:44:54,15.08842359,0.0001487,53.2177,121.5357,86.2301,273.8861,8.1978e-05,1.017e-05,0.0,0 STARLINK-3616,1 51782U 22017Q   23253.07285602  .00001017  00000-0  81978-4 0  9996,2 51782  53.2177 121.5357 0001487  86.2301 273.8861 15.08842359 86299,6917.873,95.437,540.767,538.709,0.0
51782.0,STARLINK-3616,PAYLOAD,2023-09-10 19:14:10,15.08834409,0.0001273,53.2173,118.2644,90.5798,269.534,-8.5462e-06,-4.24e-06,0.0,0 STARLINK-3616,1 51782U 22017Q   23253.80150655 -.00000424  00000-0 -85462-5 0  9992,2 51782  53.2173 118.2644 0001273  90.5798 269.5340 15.08834409 86402,6917.897,95.438,540.643,538.882,0.0
51782.0,STARLINK-3616,PAYLOAD,2023-09-11 07:57:15,15.08838116,0.000124,53.2174,115.8854,88.5201,271.5933,2.6274e-05,1.3e-06,0.0,0 STARLINK-3616,1 51782U 22017Q   23254.33142438  .00000130  00000-0  26274-4 0  9998,2 51782  53.2174 115.8854 0001240  88.5201 271.5933 15.08838116 84755,6917.886,95.438,540.609,538.893,0.0
51782.0,STARLINK-3616,PAYLOAD,2023-09-11 23:51:05,15.08852985,0.0001224,53.217,112.9113,94.4244,265.6888,4.3693e-05,4.08e-06,0.0,0 STARLINK-3616,1 51782U 22017Q   23254.99381437  .00000408  00000-0  43693-4 0  9996,2 51782  53.2170 112.9113 0001224  94.4244 265.6888 15.08852985 86588,6917.841,95.437,540.552,538.859,0.0
51782.0,STARLINK-3616,PAYLOAD,2023-09-12 14:09:34,15.08835583,0.0001267,53.217,110.2357,84.9463,275.1674,7.844e-05,9.61e-06,0.0,0 STARLINK-3616,1 51782U 22017Q   23255.58998472  .00000961  00000-0  78440-4 0  9997,2 51782  53.2170 110.2357 0001267  84.9463 275.1674 15.08835583 84945,6917.894,95.438,540.635,538.882,0.0
51782.0,STARLINK-3616,PAYLOAD,2023-09-12 20:31:07,15.08827679,0.0001203,53.2163,109.0457,87.2705,272.8424,0.00022893,3.356e-05,0.0,0 STARLINK-3616,1 51782U 22017Q   23255.85494511  .00003356  00000-0  22893-3 0  9993,2 51782  53.2163 109.0457 0001203  87.2705 272.8424 15.08827679 84987,6917.918,95.438,540.615,538.951,0.0
51782.0,STARLINK-3616,PAYLOAD,2023-09-12 22:06:30,15.08842476,0.0001314,53.2167,108.7487,85.4638,274.6504,0.00010472,1.379e-05,0.0,0 STARLINK-3616,1 51782U 22017Q   23255.92118088  .00001379  00000-0  10472-3 0  9996,2 51782  53.2167 108.7487 0001314  85.4638 274.6504 15.08842476 86723,6917.873,95.437,540.647,538.829,0.0
51782.0,STARLINK-3616,PAYLOAD,2023-09-13 20:21:52,15.08857364,0.0001316,53.2171,104.5845,90.9177,269.1966,8.2261e-05,1.022e-05,0.0,0 STARLINK-3616,1 51782U 22017Q   23256.84852777  .00001022  00000-0  82261-4 0  9999,2 51782  53.2171 104.5845 0001316  90.9177 269.1966 15.08857364 85138,6917.827,95.436,540.603,538.782,0.0
51782.0,STARLINK-3616,PAYLOAD,2023-09-13 21:57:15,15.08859614,0.0001326,53.2173,104.2868,92.7663,267.3481,0.00010069,1.316e-05,0.0,0 STARLINK-3616,1 51782U 22017Q   23256.91476541  .00001316  00000-0  10069-3 0  9990,2 51782  53.2173 104.2868 0001326  92.7663 267.3481 15.08859614 86877,6917.82,95.436,540.603,538.768,0.0
51782.0,STARLINK-3616,PAYLOAD,2023-09-14 20:12:41,15.08830142,0.0001299,53.2172,100.1247,80.1847,279.9292,-7.4092e-05,-1.467e-05,0.0,0 STARLINK-3616,1 51782U 22017Q   23257.84215135 -.00001467  00000-0 -74092-4 0  9999,2 51782  53.2172 100.1247 0001299  80.1847 279.9292 15.08830142 87017,6917.911,95.438,540.674,538.877,0.0
51782.0,STARLINK-3616,PAYLOAD,2023-09-14 23:23:28,15.08831064,0.000127,53.2174,99.5296,81.6847,278.429,-7.1074e-05,-1.419e-05,0.0,0 STARLINK-3616,1 51782U 22017Q   23257.97463122 -.00001419  00000-0 -71074-4 0  9998,2 51782  53.2174  99.5296 0001270  81.6847 278.4290 15.08831064 85305,6917.908,95.438,540.651,538.894,0.0
51782.0,STARLINK-3616,PAYLOAD,2023-09-15 18:28:05,15.08845998,0.0001314,53.2171,95.9632,73.7661,286.3476,-2.9567e-05,-7.59e-06,0.0,0 STARLINK-3616,1 51782U 22017Q   23258.76950306 -.00000759  00000-0 -29567-4 0  9997,2 51782  53.2171  95.9632 0001314  73.7661 286.3476 15.08845998 87151,6917.862,95.437,540.636,538.818,0.0
51782.0,STARLINK-3616,PAYLOAD,2023-09-16 13:32:43,15.08832801,0.0001384,53.2174,92.3932,72.1555,287.9588,0.00018982,2.734e-05,0.0,0 STARLINK-3616,1 51782U 22017Q   23259.56438805  .00002734  00000-0  18982-3 0  9992,2 51782  53.2174  92.3932 0001384  72.1555 287.9588 15.08832801 85541,6917.902,95.438,540.725,538.81,0.0
51782.0,STARLINK-3616,PAYLOAD,2023-09-16 18:18:52,15.08837828,0.000139,53.2176,91.5011,72.2848,287.8296,0.0002369,3.484e-05,0.0,0 STARLINK-3616,1 51782U 22017Q   23259.76310617  .00003484  00000-0  23690-3 0  9999,2 51782  53.2176  91.5011 0001390  72.2848 287.8296 15.08837828 87300,6917.887,95.438,540.714,538.79,0.0
51782.0,STARLINK-3616,PAYLOAD,2023-09-16 19:54:15,15.08840154,0.0001397,53.2176,91.2038,72.5378,287.5766,0.00026531,3.937e-05,0.0,0 STARLINK-3616,1 51782U 22017Q   23259.82934564  .00003937  00000-0  26531-3 0  9999,2 51782  53.2176  91.2038 0001397  72.5378 287.5766 15.08840154 85587,6917.88,95.438,540.711,538.778,0.0
51782.0,STARLINK-3616,PAYLOAD,2023-09-17 21:20:25,15.08848123,0.0001364,53.2178,86.4464,78.9834,281.1312,0.00010161,1.33e-05,0.0,0 STARLINK-3616,1 51782U 22017Q   23260.88918422  .00001330  00000-0  10161-3 0  9999,2 51782  53.2178  86.4464 0001364  78.9834 281.1312 15.08848123 87470,6917.856,95.437,540.664,538.777,0.0
51782.0,STARLINK-3616,PAYLOAD,2023-09-18 05:17:21,15.08839267,0.0001361,53.2168,84.9586,79.5677,280.5468,-3.9603e-05,-9.18e-06,0.0,0 STARLINK-3616,1 51782U 22017Q   23261.22038626 -.00000918  00000-0 -39603-4 0  9993,2 51782  53.2168  84.9586 0001361  79.5677 280.5468 15.08839267 87526,6917.883,95.438,540.689,538.806,0.0
51782.0,STARLINK-3616,PAYLOAD,2023-09-18 19:35:49,15.08843032,0.0001474,53.2181,82.2819,80.8922,279.2237,3.887e-05,3.31e-06,0.0,0 STARLINK-3616,1 51782U 22017Q   23261.81654841  .00000331  00000-0  38870-4 0  9993,2 51782  53.2181  82.2819 0001474  80.8922 279.2237 15.08843032 85885,6917.871,95.437,540.756,538.716,0.0
51782.0,STARLINK-3616,PAYLOAD,2023-09-19 17:51:13,15.08847184,0.0001465,53.2172,78.1199,97.6215,262.4943,0.00019274,2.781e-05,0.0,0 STARLINK-3616,1 51782U 22017Q   23262.74390242  .00002781  00000-0  19274-3 0  9995,2 51782  53.2172  78.1199 0001465  97.6215 262.4943 15.08847184 87759,6917.858,95.437,540.737,538.71,0.0
51782.0,STARLINK-3616,PAYLOAD,2023-09-19 19:26:36,15.08851882,0.0001377,53.2168,77.8228,89.4992,270.6158,0.00022028,3.221e-05,0.0,0 STARLINK-3616,1 51782U 22017Q   23262.81014012  .00003221  00000-0  22028-3 0  9992,2 51782  53.2168  77.8228 0001377  89.4992 270.6158 15.08851882 86035,6917.844,95.437,540.662,538.756,0.0
51782.0,STARLINK-3616,PAYLOAD,2023-09-20 17:42:01,15.08829789,0.0001414,53.2171,73.66,84.5677,275.5477,-6.2146e-05,-1.277e-05,0.0,0 STARLINK-3616,1 51782U 22017Q   23263.73751484 -.00001277  00000-0 -62146-4 0  9992,2 51782  53.2171  73.6600 0001414  84.5677 275.5477 15.08829789 87901,6917.912,95.438,540.755,538.798,0.0
51782.0,STARLINK-3616,PAYLOAD,2023-09-20 20:52:47,15.0882945,0.0001427,53.217,73.065,85.7304,274.3851,-5.4623e-05,-1.157e-05,0.0,0 STARLINK-3616,1 51782U 22017Q   23263.86999584 -.00001157  00000-0 -54623-4 0  9999,2 51782  53.2170  73.0650 0001427  85.7304 274.3851 15.08829450 86191,6917.913,95.438,540.765,538.79,0.0
51782.0,STARLINK-3616,PAYLOAD,2023-09-21 04:49:43,15.08834442,0.000142,53.2173,71.5782,84.5923,275.5231,8.9742e-05,1.14e-05,0.0,0 STARLINK-3616,1 51782U 22017Q   23264.20119642  .00001140  00000-0  89742-4 0  9997,2 51782  53.2173  71.5782 0001420  84.5923 275.5231 15.08834442 86248,6917.897,95.438,540.745,538.78,0.0
51782.0,STARLINK-3616,PAYLOAD,2023-09-21 17:32:48,15.08847613,0.0001203,53.2182,69.1977,79.7414,280.3714,0.00035906,5.432e-05,0.0,0 STARLINK-3616,1 51782U 22017Q   23264.73111198  .00005432  00000-0  35906-3 0  9993,2 51782  53.2182  69.1977 0001203  79.7414 280.3714 15.08847613 88052,6917.857,95.437,540.554,538.89,0.0
51782.0,STARLINK-3616,PAYLOAD,2023-09-22 04:40:29,15.08850471,0.0001247,53.2166,67.1169,72.9106,287.2023,0.00038372,5.826e-05,0.0,0 STARLINK-3616,1 51782U 22017Q   23265.19479098  .00005826  00000-0  38372-3 0  9997,2 51782  53.2166  67.1169 0001247  72.9106 287.2023 15.08850471 86396,6917.848,95.437,540.576,538.851,0.0
51782.0,STARLINK-3616,PAYLOAD,2023-09-22 17:23:35,15.08847758,0.0001374,53.2182,64.7366,83.1385,276.9764,0.00028802,4.3e-05,0.0,0 STARLINK-3616,1 51782U 22017Q   23265.72471165  .00004300  00000-0  28802-3 0  9996,2 51782  53.2182  64.7366 0001374  83.1385 276.9764 15.08847758 88203,6917.857,95.437,540.672,538.771,0.0
51782.0,STARLINK-3616,PAYLOAD,2023-09-22 20:34:21,15.08850736,0.0001383,53.2181,64.1417,83.2258,276.8892,0.00031496,4.73e-05,0.0,0 STARLINK-3616,1 51782U 22017Q   23265.85719004  .00004730  00000-0  31496-3 0  9997,2 51782  53.2181  64.1417 0001383  83.2258 276.8892 15.08850736 86493,6917.848,95.437,540.669,538.756,0.0
51782.0,STARLINK-3616,PAYLOAD,2023-09-23 10:52:49,15.08842215,0.0001412,53.2182,61.4639,85.6496,274.4657,-1.008e-05,-4.48e-06,0.0,0 STARLINK-3616,1 51782U 22017Q   23266.45335100 -.00000448  00000-0 -10080-4 0  9996,2 51782  53.2182  61.4639 0001412  85.6496 274.4657 15.08842215 88312,6917.874,95.437,540.715,538.762,0.0
51782.0,STARLINK-3616,PAYLOAD,2023-09-24 13:54:23,15.0883701,0.000127,53.2173,56.4109,84.5803,275.5334,8.6955e-06,-1.49e-06,0.0,0 STARLINK-3616,1 51782U 22017Q   23267.57943417 -.00000149  00000-0  86955-5 0  9998,2 51782  53.2173  56.4109 0001270  84.5803 275.5334 15.08837010 86757,6917.89,95.438,540.633,538.876,0.0
